{
  "type": "FeatureCollection",
  "features": [
    {
      "type": "Feature",
      "properties": {
        "norad_id": 43823,
        "name": "GEO-KOMPSAT-2A",
        "group": "weather",
        "lat": -0.006692123722797274,
        "lon": -88.31106397995133,
        "alt_km": 35787.87732146996,
        "timestamp": "2025-12-16T03:53:26.701286+00:00",
        "meta_object_name": "GEO-KOMPSAT-2A",
        "meta_object_id": "2018-100A",
        "meta_epoch": "2025-12-14T19:09:50.685120",
        "meta_mean_motion": 1.00272904,
        "meta_eccentricity": 4.857e-05,
        "meta_inclination": 0.0478,
        "meta_ra_of_asc_node": 139.8747,
        "meta_arg_of_pericenter": 333.1425,
        "meta_mean_anomaly": 26.433,
        "meta_ephemeris_type": 0,
        "meta_classification_type": "U",
        "meta_norad_cat_id": 43823,
        "meta_element_set_no": 999,
        "meta_rev_at_epoch": 2578,
        "meta_bstar": 0,
        "meta_mean_motion_dot": -3.24e-06,
        "meta_mean_motion_ddot": 0,
        "tle_line1": "1 43823U 18100A   25348.79850330 -.00000324  00000+0  00000+0 0  9995",
        "tle_line2": "2 43823   0.0478 139.8747 0000485 333.1425  26.4330  1.00272904 25783"
      },
      "geometry": {
        "type": "Point",
        "coordinates": [
          -88.31106397995133,
          -0.006692123722797274
        ]
      }
    },
    {
      "type": "Feature",
      "properties": {
        "norad_id": 44387,
        "name": "METEOR-M2 2",
        "group": "weather",
        "lat": -80.54184224962371,
        "lon": 40.03624576439207,
        "alt_km": 818.8816200708661,
        "timestamp": "2025-12-16T03:53:26.701298+00:00",
        "meta_object_name": "METEOR-M2 2",
        "meta_object_id": "2019-038A",
        "meta_epoch": "2025-12-15T08:03:57.355200",
        "meta_mean_motion": 14.2429406,
        "meta_eccentricity": 0.00013951,
        "meta_inclination": 98.8973,
        "meta_ra_of_asc_node": 329.0969,
        "meta_arg_of_pericenter": 141.6919,
        "meta_mean_anomaly": 218.4358,
        "meta_ephemeris_type": 0,
        "meta_classification_type": "U",
        "meta_norad_cat_id": 44387,
        "meta_element_set_no": 999,
        "meta_rev_at_epoch": 33512,
        "meta_bstar": 0.00019780817,
        "meta_mean_motion_dot": 4.11e-06,
        "meta_mean_motion_ddot": 0,
        "tle_line1": "1 44387U 19038A   25349.33608050  .00000411  00000+0  19781-3 0  9999",
        "tle_line2": "2 44387  98.8973 329.0969 0001395 141.6919 218.4358 14.24294060335126"
      },
      "geometry": {
        "type": "Point",
        "coordinates": [
          40.03624576439207,
          -80.54184224962371
        ]
      }
    },
    {
      "type": "Feature",
      "properties": {
        "norad_id": 47719,
        "name": "ARKTIKA-M 1",
        "group": "weather",
        "lat": 52.91497122324172,
        "lon": 125.52086511440925,
        "alt_km": 30021.22010066434,
        "timestamp": "2025-12-16T03:53:26.701315+00:00",
        "meta_object_name": "ARKTIKA-M 1",
        "meta_object_id": "2021-016A",
        "meta_epoch": "2025-12-09T14:03:23.859648",
        "meta_mean_motion": 2.00631311,
        "meta_eccentricity": 0.7202538,
        "meta_inclination": 63.1769,
        "meta_ra_of_asc_node": 84.4506,
        "meta_arg_of_pericenter": 269.1116,
        "meta_mean_anomaly": 15.6235,
        "meta_ephemeris_type": 0,
        "meta_classification_type": "U",
        "meta_norad_cat_id": 47719,
        "meta_element_set_no": 999,
        "meta_rev_at_epoch": 3498,
        "meta_bstar": 0,
        "meta_mean_motion_dot": -6.1e-07,
        "meta_mean_motion_ddot": 0,
        "tle_line1": "1 47719U 21016A   25343.58569282 -.00000061  00000+0  00000+0 0  9996",
        "tle_line2": "2 47719  63.1769  84.4506 7202538 269.1116  15.6235  2.00631311 34985"
      },
      "geometry": {
        "type": "Point",
        "coordinates": [
          125.52086511440925,
          52.91497122324172
        ]
      }
    },
    {
      "type": "Feature",
      "properties": {
        "norad_id": 49008,
        "name": "FENGYUN 3E",
        "group": "weather",
        "lat": 1.7228151036545691,
        "lon": 170.9082736339743,
        "alt_km": 828.2552497509714,
        "timestamp": "2025-12-16T03:53:26.701338+00:00",
        "meta_object_name": "FENGYUN 3E",
        "meta_object_id": "2021-062A",
        "meta_epoch": "2025-12-15T06:45:34.390656",
        "meta_mean_motion": 14.19880537,
        "meta_eccentricity": 5.897e-05,
        "meta_inclination": 98.748,
        "meta_ra_of_asc_node": 349.7729,
        "meta_arg_of_pericenter": 244.7401,
        "meta_mean_anomaly": 115.3714,
        "meta_ephemeris_type": 0,
        "meta_classification_type": "U",
        "meta_norad_cat_id": 49008,
        "meta_element_set_no": 999,
        "meta_rev_at_epoch": 23048,
        "meta_bstar": 0.00010546092,
        "meta_mean_motion_dot": 1.8e-06,
        "meta_mean_motion_ddot": 0,
        "tle_line1": "1 49008U 21062A   25349.28164804  .00000180  00000+0  10546-3 0  9995",
        "tle_line2": "2 49008  98.7480 349.7729 0000589 244.7401 115.3714 14.19880537230489"
      },
      "geometry": {
        "type": "Point",
        "coordinates": [
          170.9082736339743,
          1.7228151036545691
        ]
      }
    },
    {
      "type": "Feature",
      "properties": {
        "norad_id": 51850,
        "name": "GOES 18",
        "group": "weather",
        "lat": 0.0015724036100183449,
        "lon": 6.410580816982232,
        "alt_km": 35784.66386182776,
        "timestamp": "2025-12-16T03:53:26.701349+00:00",
        "meta_object_name": "GOES 18",
        "meta_object_id": "2022-021A",
        "meta_epoch": "2025-12-15T08:39:38.537280",
        "meta_mean_motion": 1.0027144,
        "meta_eccentricity": 4.859e-05,
        "meta_inclination": 0.0044,
        "meta_ra_of_asc_node": 58.3682,
        "meta_arg_of_pericenter": 262.9384,
        "meta_mean_anomaly": 115.8716,
        "meta_ephemeris_type": 0,
        "meta_classification_type": "U",
        "meta_norad_cat_id": 51850,
        "meta_element_set_no": 999,
        "meta_rev_at_epoch": 474,
        "meta_bstar": 0,
        "meta_mean_motion_dot": 1.18e-06,
        "meta_mean_motion_ddot": 0,
        "tle_line1": "1 51850U 22021A   25349.36086270  .00000118  00000+0  00000+0 0  9999",
        "tle_line2": "2 51850   0.0044  58.3682 0000485 262.9384 115.8716  1.00271440  4745"
      },
      "geometry": {
        "type": "Point",
        "coordinates": [
          6.410580816982232,
          0.0015724036100183449
        ]
      }
    },
    {
      "type": "Feature",
      "properties": {
        "norad_id": 54234,
        "name": "NOAA 21 (JPSS-2)",
        "group": "weather",
        "lat": -0.30538929197194087,
        "lon": 106.38054952349549,
        "alt_km": 831.2246773315965,
        "timestamp": "2025-12-16T03:53:26.701360+00:00",
        "meta_object_name": "NOAA 21 (JPSS-2)",
        "meta_object_id": "2022-150A",
        "meta_epoch": "2025-12-15T08:26:11.246784",
        "meta_mean_motion": 14.19525054,
        "meta_eccentricity": 0.00021162,
        "meta_inclination": 98.7464,
        "meta_ra_of_asc_node": 285.6272,
        "meta_arg_of_pericenter": 33.0442,
        "meta_mean_anomaly": 327.0866,
        "meta_ephemeris_type": 0,
        "meta_classification_type": "U",
        "meta_norad_cat_id": 54234,
        "meta_element_set_no": 999,
        "meta_rev_at_epoch": 16046,
        "meta_bstar": 6.242747e-05,
        "meta_mean_motion_dot": 8.8e-07,
        "meta_mean_motion_ddot": 0,
        "tle_line1": "1 54234U 22150A   25349.35151906  .00000088  00000+0  62427-4 0  9991",
        "tle_line2": "2 54234  98.7464 285.6272 0002116  33.0442 327.0866 14.19525054160461"
      },
      "geometry": {
        "type": "Point",
        "coordinates": [
          106.38054952349549,
          -0.30538929197194087
        ]
      }
    },
    {
      "type": "Feature",
      "properties": {
        "norad_id": 54743,
        "name": "METEOSAT-12 (MTG-I1)",
        "group": "weather",
        "lat": 0.6091903641009369,
        "lon": 143.10962122490776,
        "alt_km": 35789.87475704434,
        "timestamp": "2025-12-16T03:53:26.701372+00:00",
        "meta_object_name": "METEOSAT-12 (MTG-I1)",
        "meta_object_id": "2022-170C",
        "meta_epoch": "2025-12-15T06:32:17.576160",
        "meta_mean_motion": 1.00269692,
        "meta_eccentricity": 0.0001584,
        "meta_inclination": 0.6896,
        "meta_ra_of_asc_node": 24.0298,
        "meta_arg_of_pericenter": 238.8017,
        "meta_mean_anomaly": 279.1443,
        "meta_ephemeris_type": 0,
        "meta_classification_type": "U",
        "meta_norad_cat_id": 54743,
        "meta_element_set_no": 999,
        "meta_rev_at_epoch": 1113,
        "meta_bstar": 0,
        "meta_mean_motion_dot": 1.3e-07,
        "meta_mean_motion_ddot": 0,
        "tle_line1": "1 54743U 22170C   25349.27242565  .00000013  00000+0  00000+0 0  9993",
        "tle_line2": "2 54743   0.6896  24.0298 0001584 238.8017 279.1443  1.00269692 11137"
      },
      "geometry": {
        "type": "Point",
        "coordinates": [
          143.10962122490776,
          0.6091903641009369
        ]
      }
    }
  ]
}